{"type": "FeatureCollection", "features": [ {"type": "Feature", "properties": {"norad_id": 28659, "name": "DIRECTV 8", "group": "intelsat", "lat": -0.024539501101332475, "lon": -99.75525808420346, "alt_km": 35773.818033600495, "timestamp": "2025-12-16T19:34:23.932740+00:00", "meta": {"OBJECT_NAME": "DIRECTV 8", "OBJECT_ID": "2005-019A", "EPOCH": "2025-12-15T21:22:57.785376", "MEAN_MOTION": 1.00272587, "ECCENTRICITY": 0.0002901, "INCLINATION": 0.0121, "RA_OF_ASC_NODE": 298.5741, "ARG_OF_PERICENTER": 334.2049, "MEAN_ANOMALY": 13.7115, "EPHEMERIS_TYPE": 0, "CLASSIFICATION_TYPE": "U", "NORAD_CAT_ID": 28659, "ELEMENT_SET_NO": 999, "REV_AT_EPOCH": 7523, "BSTAR": 0, "MEAN_MOTION_DOT": 2.4e-07, "MEAN_MOTION_DDOT": 0}, "tle": {"line1": "1 28659U 05019A   25349.89094659  .00000024  00000+0  00000+0 0  9992", "line2": "2 28659   0.0121 298.5741 0002901 334.2049  13.7115  1.00272587 75236"}}, "geometry": {"type": "Point", "coordinates": [-99.75525808420346, -0.024539501101332475]}}, {"type": "Feature", "properties": {"norad_id": 28702, "name": "GALAXY 28 (G-28)", "group": "intelsat", "lat": -1.4081103403255337, "lon": -69.41952854514425, "alt_km": 35775.108004776834, "timestamp": "2025-12-16T19:34:23.932752+00:00", "meta": {"OBJECT_NAME": "GALAXY 28 (G-28)", "OBJECT_ID": "2005-022A", "EPOCH": "2025-12-15T21:31:34.459968", "MEAN_MOTION": 1.00271164, "ECCENTRICITY": 0.00028733, "INCLINATION": 2.8272, "RA_OF_ASC_NODE": 81.2455, "ARG_OF_PERICENTER": 188.7759, "MEAN_ANOMALY": 48.9748, "EPHEMERIS_TYPE": 0, "CLASSIFICATION_TYPE": "U", "NORAD_CAT_ID": 28702, "ELEMENT_SET_NO": 999, "REV_AT_EPOCH": 5013, "BSTAR": 0, "MEAN_MOTION_DOT": -1.66e-06, "MEAN_MOTION_DDOT": 0}, "tle": {"line1": "1 28702U 05022A   25349.89692662 -.00000166  00000+0  00000+0 0  9991", "line2": "2 28702   2.8272  81.2455 0002873 188.7759  48.9748  1.00271164 50133"}}, "geometry": {"type": "Point", "coordinates": [-69.41952854514425, -1.4081103403255337]}}, {"type": "Feature", "properties": {"norad_id": 29236, "name": "GALAXY 16 (G-16)", "group": "intelsat", "lat": -0.0028499207221563665, "lon": -79.70105970108409, "alt_km": 35775.90982755314, "timestamp": "2025-12-16T19:34:23.932764+00:00", "meta": {"OBJECT_NAME": "GALAXY 16 (G-16)", "OBJECT_ID": "2006-023A", "EPOCH": "2025-12-15T21:28:42.235392", "MEAN_MOTION": 1.00272415, "ECCENTRICITY": 0.00025049, "INCLINATION": 0.0343, "RA_OF_ASC_NODE": 222.7142, "ARG_OF_PERICENTER": 38.3426, "MEAN_ANOMALY": 46.9113, "EPHEMERIS_TYPE": 0, "CLASSIFICATION_TYPE": "U", "NORAD_CAT_ID": 29236, "ELEMENT_SET_NO": 999, "REV_AT_EPOCH": 7113, "BSTAR": 0, "MEAN_MOTION_DOT": -1.04e-06, "MEAN_MOTION_DDOT": 0}, "tle": {"line1": "1 29236U 06023A   25349.89493328 -.00000104  00000+0  00000+0 0  9996", "line2": "2 29236   0.0343 222.7142 0002504  38.3426  46.9113  1.00272415 71139"}}, "geometry": {"type": "Point", "coordinates": [-79.70105970108409, -0.0028499207221563665]}}, {"type": "Feature", "properties": {"norad_id": 29494, "name": "DIRECTV 9S", "group": "intelsat", "lat": -0.5249813592759562, "lon": -81.9221058839514, "alt_km": 35774.116130012495, "timestamp": "2025-12-16T19:34:23.932776+00:00", "meta": {"OBJECT_NAME": "DIRECTV 9S", "OBJECT_ID": "2006-043A", "EPOCH": "2025-12-15T21:27:57.307392", "MEAN_MOTION": 1.00271943, "ECCENTRICITY": 0.00028687, "INCLINATION": 1.9481, "RA_OF_ASC_NODE": 83.1794, "ARG_OF_PERICENTER": 186.1809, "MEAN_ANOMALY": 36.2098, "EPHEMERIS_TYPE": 0, "CLASSIFICATION_TYPE": "U", "NORAD_CAT_ID": 29494, "ELEMENT_SET_NO": 999, "REV_AT_EPOCH": 4954, "BSTAR": 0, "MEAN_MOTION_DOT": -9.2e-07, "MEAN_MOTION_DDOT": 0}, "tle": {"line1": "1 29494U 06043A   25349.89441328 -.00000092  00000+0  00000+0 0  9993", "line2": "2 29494   1.9481  83.1794 0002868 186.1809  36.2098  1.00271943 49549"}}, "geometry": {"type": "Point", "coordinates": [-81.9221058839514, -0.5249813592759562]}}, {"type": "Feature", "properties": {"norad_id": 31307, "name": "GALAXY 17 (G-17)", "group": "intelsat", "lat": -1.3539140570261512, "lon": -65.6605235931036, "alt_km": 35769.39205695767, "timestamp": "2025-12-16T19:34:23.932788+00:00", "meta": {"OBJECT_NAME": "GALAXY 17 (G-17)", "OBJECT_ID": "2007-016B", "EPOCH": "2025-12-15T21:32:41.852832", "MEAN_MOTION": 1.00272177, "ECCENTRICITY": 0.00056102, "INCLINATION": 2.5079, "RA_OF_ASC_NODE": 82.2506, "ARG_OF_PERICENTER": 167.0269, "MEAN_ANOMALY": 73.7174, "EPHEMERIS_TYPE": 0, "CLASSIFICATION_TYPE": "U", "NORAD_CAT_ID": 31307, "ELEMENT_SET_NO": 999, "REV_AT_EPOCH": 6796, "BSTAR": 0, "MEAN_MOTION_DOT": -1.85e-06, "MEAN_MOTION_DDOT": 0}, "tle": {"line1": "1 31307U 07016B   25349.89770663 -.00000185  00000+0  00000+0 0  9990", "line2": "2 31307   2.5079  82.2506 0005610 167.0269  73.7174  1.00272177 67969"}}, "geometry": {"type": "Point", "coordinates": [-65.6605235931036, -1.3539140570261512]}}, {"type": "Feature", "properties": {"norad_id": 31862, "name": "DIRECTV 10", "group": "intelsat", "lat": -0.010029226304132575, "lon": -83.49685908487108, "alt_km": 35785.69602749767, "timestamp": "2025-12-16T19:34:23.932801+00:00", "meta": {"OBJECT_NAME": "DIRECTV 10", "OBJECT_ID": "2007-032A", "EPOCH": "2025-12-15T21:27:34.843392", "MEAN_MOTION": 1.00271306, "ECCENTRICITY": 3.013e-05, "INCLINATION": 0.008, "RA_OF_ASC_NODE": 274.1653, "ARG_OF_PERICENTER": 296.8087, "MEAN_ANOMALY": 92.9267, "EPHEMERIS_TYPE": 0, "CLASSIFICATION_TYPE": "U", "NORAD_CAT_ID": 31862, "ELEMENT_SET_NO": 999, "REV_AT_EPOCH": 4375, "BSTAR": 0, "MEAN_MOTION_DOT": -8e-07, "MEAN_MOTION_DDOT": 0}, "tle": {"line1": "1 31862U 07032A   25349.89415328 -.00000080  00000+0  00000+0 0  9992", "line2": "2 31862   0.0080 274.1653 0000301 296.8087  92.9267  1.00271306 43756"}}, "geometry": {"type": "Point", "coordinates": [-83.49685908487108, -0.010029226304132575]}}, {"type": "Feature", "properties": {"norad_id": 32253, "name": "INTELSAT 11 (IS-11)", "group": "intelsat", "lat": 1.7021854230718556, "lon": -132.96279519156462, "alt_km": 36097.15195356248, "timestamp": "2025-12-16T19:34:23.932818+00:00", "meta": {"OBJECT_NAME": "INTELSAT 11 (IS-11)", "OBJECT_ID": "2007-044B", "EPOCH": "2025-12-15T17:49:21.155808", "MEAN_MOTION": 0.99050209, "ECCENTRICITY": 0.00086798, "INCLINATION": 3.0878, "RA_OF_ASC_NODE": 80.9437, "ARG_OF_PERICENTER": 167.1594, "MEAN_ANOMALY": 316.3371, "EPHEMERIS_TYPE": 0, "CLASSIFICATION_TYPE": "U", "NORAD_CAT_ID": 32253, "ELEMENT_SET_NO": 999, "REV_AT_EPOCH": 6663, "BSTAR": 0, "MEAN_MOTION_DOT": 5e-07, "MEAN_MOTION_DDOT": 0}, "tle": {"line1": "1 32253U 07044B   25349.74260597  .00000050  00000+0  00000+0 0  9996", "line2": "2 32253   3.0878  80.9437 0008679 167.1594 316.3371  0.99050209 66636"}}, "geometry": {"type": "Point", "coordinates": [-132.96279519156462, 1.7021854230718556]}}, {"type": "Feature", "properties": {"norad_id": 32388, "name": "HORIZONS-2", "group": "intelsat", "lat": -1.4585842972755463, "lon": -54.48858374561142, "alt_km": 35769.51901471079, "timestamp": "2025-12-16T19:34:23.932831+00:00", "meta": {"OBJECT_NAME": "HORIZONS-2", "OBJECT_ID": "2007-063B", "EPOCH": "2025-12-15T21:35:49.053984", "MEAN_MOTION": 1.00273402, "ECCENTRICITY": 0.00046067, "INCLINATION": 2.1294, "RA_OF_ASC_NODE": 82.9313, "ARG_OF_PERICENTER": 189.8451, "MEAN_ANOMALY": 62.1811, "EPHEMERIS_TYPE": 0, "CLASSIFICATION_TYPE": "U", "NORAD_CAT_ID": 32388, "ELEMENT_SET_NO": 999, "REV_AT_EPOCH": 6597, "BSTAR": 0, "MEAN_MOTION_DOT": -2.32e-06, "MEAN_MOTION_DDOT": 0}, "tle": {"line1": "1 32388U 07063B   25349.89987331 -.00000232  00000+0  00000+0 0  9997", "line2": "2 32388   2.1294  82.9313 0004606 189.8451  62.1811  1.00273402 65977"}}, "geometry": {"type": "Point", "coordinates": [-54.48858374561142, -1.4585842972755463]}}, {"type": "Feature", "properties": {"norad_id": 32729, "name": "DIRECTV 11", "group": "intelsat", "lat": -0.008929912386987562, "lon": -79.8939234596682, "alt_km": 35787.16369141877, "timestamp": "2025-12-16T19:34:23.932843+00:00", "meta": {"OBJECT_NAME": "DIRECTV 11", "OBJECT_ID": "2008-013A", "EPOCH": "2025-12-15T21:28:34.747104", "MEAN_MOTION": 1.0027048, "ECCENTRICITY": 5.861e-05, "INCLINATION": 0.0419, "RA_OF_ASC_NODE": 173.3202, "ARG_OF_PERICENTER": 0.3423, "MEAN_ANOMALY": 134.0909, "EPHEMERIS_TYPE": 0, "CLASSIFICATION_TYPE": "U", "NORAD_CAT_ID": 32729, "ELEMENT_SET_NO": 999, "REV_AT_EPOCH": 4375, "BSTAR": 0, "MEAN_MOTION_DOT": -1.03e-06, "MEAN_MOTION_DDOT": 0}, "tle": {"line1": "1 32729U 08013A   25349.89484661 -.00000103  00000+0  00000+0 0  9997", "line2": "2 32729   0.0419 173.3202 0000586   0.3423 134.0909  1.00270480 43755"}}, "geometry": {"type": "Point", "coordinates": [-79.8939234596682, -0.008929912386987562]}}, {"type": "Feature", "properties": {"norad_id": 32951, "name": "GALAXY 18 (G-18)", "group": "intelsat", "lat": -0.04642149495721659, "lon": -103.73918017289455, "alt_km": 35774.585134815294, "timestamp": "2025-12-16T19:34:23.932855+00:00", "meta": {"OBJECT_NAME": "GALAXY 18 (G-18)", "OBJECT_ID": "2008-024A", "EPOCH": "2025-12-15T21:21:27.927648", "MEAN_MOTION": 1.00271537, "ECCENTRICITY": 0.00028398, "INCLINATION": 0.0241, "RA_OF_ASC_NODE": 4.585, "ARG_OF_PERICENTER": 268.4955, "MEAN_ANOMALY": 9.0562, "EPHEMERIS_TYPE": 0, "CLASSIFICATION_TYPE": "U", "NORAD_CAT_ID": 32951, "ELEMENT_SET_NO": 999, "REV_AT_EPOCH": 4401, "BSTAR": 0, "MEAN_MOTION_DOT": 0, "MEAN_MOTION_DDOT": 0}, "tle": {"line1": "1 32951U 08024A   25349.88990657  .00000000  00000+0  00000+0 0  9997", "line2": "2 32951   0.0241   4.5850 0002839 268.4955   9.0562  1.00271537 44019"}}, "geometry": {"type": "Point", "coordinates": [-103.73918017289455, -0.04642149495721659]}}]}